{
"type": "FeatureCollection",
"name": "study_area",
"crs": { "type": "name", "properties": { "name": "urn:ogc:def:crs:OGC:1.3:CRS84" } },
"features": [
{ "type": "Feature", "properties": { "geo_point_2d": { "lon": 37.858020960080182, "lat": 0.529561859037324 }, "iso3": "KEN", "status": "Member State", "color_code": "KEN", "name": "Kenya", "continent": "Africa", "region": "Eastern Africa", "iso_3166_1_alpha_2_codes": "KE", "french_short": "Kenya" }, "geometry": { "type": "MultiPolygon", "coordinates": [ [ [ [ 41.13805, -2.12444 ], [ 41.09416, -2.14 ], [ 41.06055, -2.13333 ], [ 41.0161, -2.14889 ], [ 41.00028, -2.17833 ], [ 40.9975, -2.20306 ], [ 40.9893, -2.20139 ], [ 40.95034, -2.17132 ], [ 40.97277, -2.10917 ], [ 40.99069, -2.08944 ], [ 41.06389, -2.04417 ], [ 41.075, -2.04139 ], [ 41.09867, -2.03819 ], [ 41.12917, -2.0525 ], [ 41.16243, -2.08111 ], [ 41.16916, -2.09806 ], [ 41.16375, -2.10889 ], [ 41.13805, -2.12444 ] ] ], [ [ [ 41.90517, 3.98032 ], [ 41.89644, 3.96426 ], [ 41.79777, 3.82472 ], [ 41.33694, 3.1675 ], [ 41.28639, 3.11833 ], [ 40.99135, 2.83553 ], [ 40.98861, 2.71667 ], [ 40.98861, 2.3093 ], [ 40.98861, 1.31396 ], [ 40.98861, 0.0 ], [ 40.99833, -0.86611 ], [ 41.15388, -1.06806 ], [ 41.38138, -1.36472 ], [ 41.55527, -1.59222 ], [ 41.55816, -1.67487 ], [ 41.53819, -1.68944 ], [ 41.47833, -1.75278 ], [ 41.45499, -1.78361 ], [ 41.43777, -1.8075 ], [ 41.43417, -1.82806 ], [ 41.41444, -1.8525 ], [ 41.31528, -1.95806 ], [ 41.28027, -1.97028 ], [ 41.20083, -1.97278 ], [ 41.10555, -1.98194 ], [ 40.99166, -2.03417 ], [ 40.89166, -2.01917 ], [ 40.91055, -2.12278 ], [ 40.945, -2.2125 ], [ 40.97041, -2.23083 ], [ 40.98208, -2.25722 ], [ 40.95847, -2.30438 ], [ 40.92093, -2.31594 ], [ 40.92569, -2.28833 ], [ 40.89, -2.22583 ], [ 40.855, -2.23611 ], [ 40.83917, -2.24833 ], [ 40.78583, -2.30042 ], [ 40.7843, -2.33042 ], [ 40.81257, -2.3591 ], [ 40.82417, -2.38319 ], [ 40.81374, -2.40042 ], [ 40.63048, -2.55285 ], [ 40.59194, -2.55389 ], [ 40.56375, -2.54167 ], [ 40.53291, -2.52639 ], [ 40.48583, -2.53528 ], [ 40.42194, -2.55417 ], [ 40.38222, -2.56889 ], [ 40.33861, -2.59389 ], [ 40.31194, -2.60972 ], [ 40.27805, -2.63 ], [ 40.23111, -2.67111 ], [ 40.18944, -2.74306 ], [ 40.17139, -2.78 ], [ 40.16444, -2.89361 ], [ 40.16624, -2.93278 ], [ 40.1775, -2.98306 ], [ 40.15778, -3.08083 ], [ 40.11937, -3.19028 ], [ 40.1318, -3.22125 ], [ 40.12548, -3.26569 ], [ 40.10778, -3.29208 ], [ 40.06278, -3.31528 ], [ 40.02528, -3.34056 ], [ 39.97416, -3.37583 ], [ 39.935, -3.46694 ], [ 39.87138, -3.62 ], [ 39.87055, -3.64194 ], [ 39.87221, -3.67417 ], [ 39.86749, -3.69556 ], [ 39.83639, -3.79889 ], [ 39.82916, -3.81889 ], [ 39.80555, -3.87556 ], [ 39.78166, -3.92583 ], [ 39.72111, -4.01694 ], [ 39.69312, -4.0525 ], [ 39.67166, -4.09222 ], [ 39.52555, -4.41778 ], [ 39.4025, -4.63389 ], [ 39.32583, -4.64 ], [ 39.30527, -4.60208 ], [ 39.25583, -4.61195 ], [ 39.20303, -4.66962 ], [ 39.16166, -4.63945 ], [ 39.03777, -4.55 ], [ 38.72111, -4.3225 ], [ 38.62444, -4.25333 ], [ 38.48666, -4.155 ], [ 38.41749, -4.10583 ], [ 37.85139, -3.70056 ], [ 37.78305, -3.65111 ], [ 37.76486, -3.61528 ], [ 37.75638, -3.57861 ], [ 37.75, -3.55069 ], [ 37.73735, -3.52875 ], [ 37.68639, -3.5125 ], [ 37.62638, -3.50951 ], [ 37.6, -3.45028 ], [ 37.60013, -3.42472 ], [ 37.61027, -3.40153 ], [ 37.69055, -3.31667 ], [ 37.71999, -3.31194 ], [ 37.71249, -3.2675 ], [ 37.69805, -3.18667 ], [ 37.67528, -3.05139 ], [ 37.60277, -2.99583 ], [ 37.5225, -2.94917 ], [ 37.50124, -2.93806 ], [ 37.42528, -2.90694 ], [ 37.27861, -2.82556 ], [ 37.22258, -2.79445 ], [ 37.19583, -2.77889 ], [ 36.68527, -2.49695 ], [ 36.32555, -2.29833 ], [ 36.15333, -2.2 ], [ 36.03328, -2.13308 ], [ 35.88083, -2.04833 ], [ 35.67833, -1.93583 ], [ 35.26888, -1.70722 ], [ 34.71722, -1.39889 ], [ 34.50027, -1.27778 ], [ 34.40972, -1.22722 ], [ 34.07555, -1.03917 ], [ 34.06905, -1.03481 ], [ 34.01875, -1.00111 ], [ 33.94833, -1.00111 ], [ 33.9211, -1.00194 ], [ 33.92333, -0.95306 ], [ 33.91861, -0.45278 ], [ 33.95166, -0.27181 ], [ 33.97611, -0.13417 ], [ 33.96638, -0.10083 ], [ 33.95049, -0.04814 ], [ 33.93684, 0.0 ], [ 33.92305, 0.04861 ], [ 33.9125, 0.0825 ], [ 33.90722, 0.10306 ], [ 33.98181, 0.20508 ], [ 34.0007, 0.23049 ], [ 34.0536, 0.30167 ], [ 34.10639, 0.38778 ], [ 34.16361, 0.60847 ], [ 34.21347, 0.63292 ], [ 34.2486, 0.63944 ], [ 34.26916, 0.64847 ], [ 34.41083, 0.82194 ], [ 34.44221, 0.87194 ], [ 34.48014, 0.95917 ], [ 34.48555, 0.98403 ], [ 34.48312, 1.01167 ], [ 34.48777, 1.04319 ], [ 34.5043, 1.08083 ], [ 34.52, 1.10584 ], [ 34.57555, 1.09268 ], [ 34.59715, 1.15049 ], [ 34.69166, 1.20812 ], [ 34.73972, 1.21417 ], [ 34.76472, 1.21694 ], [ 34.80167, 1.22194 ], [ 34.82034, 1.23597 ], [ 34.82972, 1.26917 ], [ 34.82888, 1.295 ], [ 34.82208, 1.31569 ], [ 34.80374, 1.335 ], [ 34.79222, 1.39361 ], [ 34.79568, 1.39855 ], [ 34.85319, 1.42806 ], [ 34.86388, 1.45944 ], [ 34.8743, 1.50611 ], [ 34.88527, 1.53083 ], [ 34.90041, 1.55306 ], [ 34.91819, 1.56292 ], [ 34.94347, 1.56889 ], [ 34.95916, 1.58722 ], [ 34.99972, 1.67028 ], [ 35.00972, 1.89528 ], [ 34.99444, 2.085 ], [ 34.94194, 2.22389 ], [ 34.91917, 2.27778 ], [ 34.88777, 2.35722 ], [ 34.8811, 2.37833 ], [ 34.8802, 2.4034 ], [ 34.90944, 2.52111 ], [ 34.84347, 2.59778 ], [ 34.7925, 2.68042 ], [ 34.7893, 2.70069 ], [ 34.78166, 2.78958 ], [ 34.75555, 2.84993 ], [ 34.71222, 2.87805 ], [ 34.68562, 2.86389 ], [ 34.66548, 2.86097 ], [ 34.5934, 2.93674 ], [ 34.5825, 3.00722 ], [ 34.57236, 3.08292 ], [ 34.56167, 3.10681 ], [ 34.545, 3.1275 ], [ 34.50874, 3.14528 ], [ 34.45389, 3.24556 ], [ 34.40374, 3.38528 ], [ 34.4034, 3.48417 ], [ 34.43548, 3.50007 ], [ 34.45347, 3.52111 ], [ 34.465, 3.61444 ], [ 34.46361, 3.66465 ], [ 34.38166, 3.73167 ], [ 34.36111, 3.73806 ], [ 34.22222, 3.77917 ], [ 34.18471, 3.84 ], [ 34.12833, 3.95181 ], [ 34.08805, 4.09722 ], [ 34.06305, 4.17361 ], [ 34.04944, 4.19055 ], [ 34.02624, 4.20805 ], [ 33.99667, 4.22278 ], [ 34.09611, 4.32055 ], [ 34.38032, 4.61129 ], [ 35.63655, 4.61149 ], [ 35.94826, 4.61154 ], [ 35.95111, 4.52111 ], [ 35.96518, 4.51005 ], [ 36.0453, 4.44708 ], [ 36.21117, 4.448 ], [ 36.26365, 4.44034 ], [ 36.27166, 4.43917 ], [ 36.43361, 4.44167 ], [ 36.6475, 4.44667 ], [ 36.66638, 4.43361 ], [ 36.71215, 4.43384 ], [ 36.88777, 4.43472 ], [ 37.03972, 4.37555 ], [ 37.09916, 4.33167 ], [ 37.13027, 4.28639 ], [ 37.28055, 4.19444 ], [ 37.99805, 3.72861 ], [ 38.03361, 3.69806 ], [ 38.05611, 3.65194 ], [ 38.12111, 3.61167 ], [ 38.32388, 3.60889 ], [ 38.44805, 3.59944 ], [ 38.51694, 3.62694 ], [ 38.62194, 3.60167 ], [ 38.72944, 3.56722 ], [ 38.81, 3.54333 ], [ 38.91361, 3.51389 ], [ 38.95638, 3.51861 ], [ 39.04611, 3.52889 ], [ 39.08472, 3.53444 ], [ 39.13, 3.51083 ], [ 39.19694, 3.47861 ], [ 39.24889, 3.47139 ], [ 39.295, 3.47528 ], [ 39.29613, 3.4765 ], [ 39.32864, 3.49965 ], [ 39.33138, 3.46917 ], [ 39.42249, 3.46 ], [ 39.45083, 3.4625 ], [ 39.49958, 3.45014 ], [ 39.50208, 3.42264 ], [ 39.51902, 3.40931 ], [ 39.56027, 3.40667 ], [ 39.59499, 3.50083 ], [ 39.78278, 3.67833 ], [ 39.86666, 3.86944 ], [ 40.0, 3.92858 ], [ 40.1825, 4.0225 ], [ 40.38861, 4.09889 ], [ 40.39889, 4.12306 ], [ 40.67222, 4.22861 ], [ 40.78377, 4.28798 ], [ 40.85361, 4.23472 ], [ 40.87694, 4.21667 ], [ 41.00944, 4.10861 ], [ 41.04819, 4.06042 ], [ 41.06361, 4.03125 ], [ 41.0936, 3.99639 ], [ 41.11472, 3.97597 ], [ 41.13513, 3.95847 ], [ 41.16055, 3.94583 ], [ 41.18097, 3.94153 ], [ 41.27389, 3.94111 ], [ 41.46903, 3.94931 ], [ 41.48763, 3.96111 ], [ 41.53486, 3.97611 ], [ 41.61138, 3.98917 ], [ 41.72583, 4.00014 ], [ 41.78111, 3.98194 ], [ 41.80083, 3.96056 ], [ 41.84013, 3.94847 ], [ 41.89194, 3.96986 ], [ 41.90517, 3.98032 ] ] ] ] } }
]
}
